FENGYUN 1C DEB          
1 31181U 99025BJK 26069.07065263  .00001715  00000+0  94605-3 0  9991
2 31181  98.7659 104.7304 0048050 183.5654 204.4291 14.12232681970006
FENGYUN 1C DEB          
1 31182U 99025BJL 26073.43418574  .00000680  00000+0  37495-3 0  9998
2 31182  98.6913  64.8196 0021682 235.2762 279.8923 14.14707377973777
FENGYUN 1C DEB          
1 31183U 99025BJM 26072.92220402  .00004786  00000+0  11924-2 0  9992
2 31183  99.0451  68.4127 0045417 193.1285 197.1503 14.51562398988054
FENGYUN 1C DEB          
1 31185U 99025BJP 26060.20966939  .00000581  00000+0  39887-3 0  9992
2 31185  98.8322  59.3564 0039545 248.0241 111.6721 14.03076352634374
FENGYUN 1C DEB          
1 31186U 99025BJQ 26072.02563954  .00000797  00000+0  45056-3 0  9990
2 31186  99.1792 354.6456 0025491 166.6912 257.7315 14.13086519973808
FENGYUN 1C DEB          
1 31187U 99025BJR 26069.88697766  .00021414  00000+0  30340-2 0  9998
2 31187  99.2360 308.6059 0211180 316.6511  41.8241 14.62890079703879
FENGYUN 1C DEB          
1 31188U 99025BJS 26073.83814918  .00003061  00000+0  13168-2 0  9996
2 31188  98.7377 146.1637 0056968 344.4118  80.9435 14.24510935976477
FENGYUN 1C DEB          
1 31190U 99025BJU 26071.50053057  .00001142  00000+0  73671-3 0  9994
2 31190  98.8172  86.5324 0067831   9.9402 350.3089 14.03833228968069
FENGYUN 1C DEB          
1 31191U 99025BJV 26072.68119142  .00001377  00000+0  42183-3 0  9997
2 31191  98.7778 341.0126 0091489 284.8921  74.2149 14.41063989993222
FENGYUN 1C DEB          
1 31192U 99025BJW 26073.68389075  .00000744  00000+0  25986-3 0  9992
2 31192  98.5649  59.6402 0257172 196.6629 162.5982 14.21293014980498
FENGYUN 1C DEB          
1 31194U 99025BJY 26073.66276444  .00003362  00000+0  11226-2 0  9997
2 31194  98.9590 331.4993 0058367   8.9447 351.2764 14.37221573984478
FENGYUN 1C DEB          
1 31195U 99025BJZ 26073.53101403  .00000281  00000+0  16760-3 0  9992
2 31195  98.7670 109.3269 0170585 282.6157  75.5985 14.08035290973904
FENGYUN 1C DEB          
1 31196U 99025BKA 26073.32332596  .00001283  00000+0  54919-3 0  9990
2 31196  98.5246  89.0219 0056863 305.8608  53.7299 14.25725867648003
FENGYUN 1C DEB          
1 31198U 99025BKC 26073.52220957  .00000082  00000+0  10539-3 0  9997
2 31198  98.6076 173.6168 0205132 104.8982 257.4984 13.75550931640151
FENGYUN 1C DEB          
1 31199U 99025BKD 26070.90062529  .00000420  00000+0  25716-3 0  9995
2 31199  98.7270  55.9413 0064774   7.9654  21.9902 14.10059951974169
FENGYUN 1C DEB          
1 31201U 99025BKF 26073.60112616  .00002412  00000+0  75945-3 0  9994
2 31201  98.9971 303.4646 0142040  81.7316 308.5182 14.35733231985691
